{
    "links": {
        "self": "http://www.neowsapp.com/rest/v1/neo/3798999?api_key=iIulBulltgU6a56xZRHN4H3l9WmuAYTsLGpBGhQ2"
    },
    "id": "3798999",
    "neo_reference_id": "3798999",
    "name": "(2018 CK)",
    "designation": "2018 CK",
    "nasa_jpl_url": "http://ssd.jpl.nasa.gov/sbdb.cgi?sstr=3798999",
    "absolute_magnitude_h": 26.5,
    "estimated_diameter": {
        "kilometers": {
            "estimated_diameter_min": 0.0133215567,
            "estimated_diameter_max": 0.0297879063
        },
        "meters": {
            "estimated_diameter_min": 13.3215566698,
            "estimated_diameter_max": 29.7879062798
        },
        "miles": {
            "estimated_diameter_min": 0.008277629,
            "estimated_diameter_max": 0.0185093411
        },
        "feet": {
            "estimated_diameter_min": 43.7058959846,
            "estimated_diameter_max": 97.7293544391
        }
    },
    "is_potentially_hazardous_asteroid": false,
    "close_approach_data": [
        {
            "close_approach_date": "1913-01-28",
            "close_approach_date_full": "1913-Jan-28 03:07",
            "epoch_date_close_approach": -1796417580000,
            "relative_velocity": {
                "kilometers_per_second": "14.1451530407",
                "kilometers_per_hour": "50922.5509465906",
                "miles_per_hour": "31641.2928367857"
            },
            "miss_distance": {
                "astronomical": "0.0119965986",
                "lunar": "4.6666768554",
                "kilometers": "1794665.597804982",
                "miles": "1115153.4921214716"
            },
            "orbiting_body": "Earth"
        },
        {
            "close_approach_date": "1913-01-28",
            "close_approach_date_full": "1913-Jan-28 07:00",
            "epoch_date_close_approach": -1796403600000,
            "relative_velocity": {
                "kilometers_per_second": "15.0415227031",
                "kilometers_per_hour": "54149.4817312698",
                "miles_per_hour": "33646.3821346326"
            },
            "miss_distance": {
                "astronomical": "0.0099934819",
                "lunar": "3.8874644591",
                "kilometers": "1495003.606123553",
                "miles": "928952.1647609114"
            },
            "orbiting_body": "Moon"
        },
        {
            "close_approach_date": "2018-01-30",
            "close_approach_date_full": "2018-Jan-30 15:32",
            "epoch_date_close_approach": 1517326320000,
            "relative_velocity": {
                "kilometers_per_second": "14.6335656113",
                "kilometers_per_hour": "52680.8362006289",
                "miles_per_hour": "32733.8229158852"
            },
            "miss_distance": {
                "astronomical": "0.0045493132",
                "lunar": "1.7696828348",
                "kilometers": "680567.564682884",
                "miles": "422885.0752524392"
            },
            "orbiting_body": "Earth"
        },
        {
            "close_approach_date": "2018-01-30",
            "close_approach_date_full": "2018-Jan-30 21:14",
            "epoch_date_close_approach": 1517346840000,
            "relative_velocity": {
                "kilometers_per_second": "14.2786715782",
                "kilometers_per_hour": "51403.2176813641",
                "miles_per_hour": "31939.9604531787"
            },
            "miss_distance": {
                "astronomical": "0.0036628651",
                "lunar": "1.4248545239",
                "kilometers": "547956.817057337",
                "miles": "340484.5776397706"
            },
            "orbiting_body": "Moon"
        }
    ],
    "orbital_data": {
        "orbit_id": "7",
        "orbit_determination_date": "2019-04-18 07:37:06",
        "first_observation_date": "2018-02-03",
        "last_observation_date": "2018-02-16",
        "data_arc_in_days": 13,
        "observations_used": 37,
        "orbit_uncertainty": "7",
        "minimum_orbit_intersection": ".00162662",
        "jupiter_tisserand_invariant": "3.810",
        "epoch_osculation": "2459000.5",
        "eccentricity": ".5772523312150477",
        "semi_major_axis": "1.830074631300292",
        "inclination": "3.412406825714406",
        "ascending_node_longitude": "311.5711243206006",
        "orbital_period": "904.2772983071254",
        "perihelion_distance": ".7736597840846794",
        "perihelion_argument": "112.8524389646803",
        "aphelion_distance": "2.886489478515904",
        "perihelion_time": "2459011.388782601495",
        "mean_anomaly": "355.6650888572825",
        "mean_motion": ".39810797050191",
        "equinox": "J2000",
        "orbit_class": {
            "orbit_class_type": "APO",
            "orbit_class_description": "Near-Earth asteroid orbits which cross the Earth’s orbit similar to that of 1862 Apollo",
            "orbit_class_range": "a (semi-major axis) > 1.0 AU; q (perihelion) < 1.017 AU"
        }
    },
    "is_sentry_object": false
}